STARLINK-5785           
1 56031U 23042AX  24082.00990131  .00003378  00000+0  26501-3 0  9992
2 56031  43.0045 342.6851 0001763 245.8987 114.1671 15.02532326 55103
STARLINK-5786           
1 56032U 23042AY  24082.19379065  .00009790  00000+0  73849-3 0  9991
2 56032  43.0042 341.4848 0001553 254.8181 105.2489 15.02551586 55137
STARLINK-5784           
1 56033U 23042AZ  24082.13064441  .00016199  00000+0  12109-2 0  9997
2 56033  43.0038 341.8728 0001495 266.9476  93.1196 15.02553143 55120
STARLINK-5782           
1 56034U 23042BA  24082.19268193  .00004176  00000+0  32396-3 0  9997
2 56034  43.0045 341.4770 0001578 247.5738 112.4937 15.02541464 55132
STARLINK-5792           
1 56035U 23042BB  24082.13397052  .00014469  00000+0  10836-2 0  9999
2 56035  43.0034 341.8917 0001501 250.9529 109.1150 15.02548872 55129
STARLINK-5790           
1 56036U 23042BC  24082.19600344  .00028456  00000+0  21109-2 0  9993
2 56036  43.0040 341.5022 0001574 256.6505 103.4162 15.02574209 55132
STARLINK-5758           
1 56037U 23042BD  24082.15087460  .00007874  00000+0  59707-3 0  9995
2 56037  43.0042 328.9665 0001713 261.9307  98.1341 15.02549174 55278
STARLINK-5793           
1 56038U 23042BE  24082.19044580  .00005515  00000+0  42272-3 0  9995
2 56038  43.0047 341.4597 0001371 266.8784  93.1901 15.02561420 55131
STARLINK-5795           
1 56039U 23042BF  24082.14644941  .00030963  00000+0  22950-2 0  9993
2 56039  43.0036 328.9347 0001622 272.8519  87.2137 15.02569218 55278
STARLINK-5798           
1 56040U 23042BG  24082.01127363  .00000501  00000+0  52171-4 0  9990
2 56040  43.0021 329.6341 0001003 266.1053  93.9675 15.02517938 55259
STARLINK-5800           
1 56041U 23042BH  24082.07551809  .00003089  00000+0  24361-3 0  9996
2 56041  43.0039 329.2572 0001621 263.4219  96.6438 15.02536581 55264
STARLINK-6102           
1 56093U 23046A   24082.43185150 -.00001474  00000+0 -94055-4 0  9995
2 56093  43.0024  96.6896 0001176 274.8171  85.2537 15.02527491 55317
STARLINK-6109           
1 56094U 23046B   24082.42295225  .00003166  00000+0  24931-3 0  9993
2 56094  43.0024  96.6217 0000989 270.9313  89.1416 15.02544603 54166
STARLINK-6090           
1 56095U 23046C   24082.49609331  .00004362  00000+0  33777-3 0  9995
2 56095  43.0024  96.3109 0001209 263.3347  96.7357 15.02540078 54174
STARLINK-6089           
1 56096U 23046D   24082.42073615  .00003362  00000+0  26383-3 0  9993
2 56096  43.0016  96.6043 0001248 260.8518  99.2183 15.02540317 54161
STARLINK-6077           
1 56097U 23046E   24082.22120332  .00001550  00000+0  12970-3 0  9995
2 56097  43.0040  45.6292 0001158 268.2798  91.7912 15.02551773 54739
STARLINK-6088           
1 56098U 23046F   24082.35980923  .00008882  00000+0  67154-3 0  9999
2 56098  43.0016  97.0082 0001171 245.2858 114.7862 15.02546260 54159
STARLINK-6093           
1 56099U 23046G   24082.41518137  .00010859  00000+0  81729-3 0  9992
2 56099  43.0016  96.5633 0000554 281.2010  78.8770 15.02553232 54166
STARLINK-6076           
1 56100U 23046H   24082.34426907  .00004572  00000+0  35324-3 0  9995
2 56100  43.0023  96.8903 0001226 267.5735  92.4967 15.02539651 54156
STARLINK-6095           
1 56101U 23046J   24082.40962980  .00006583  00000+0  50172-3 0  9991
2 56101  43.0018  96.5212 0001070 274.4867  85.5853 15.02552984 54163
STARLINK-6075           
1 56102U 23046K   24082.48388017  .00015156  00000+0  11340-2 0  9992
2 56102  43.0018  96.2189 0001059 262.6730  97.3992 15.02556178 54174
STARLINK-6096           
1 56103U 23046L   24082.47279402 -.00002114  00000+0 -14152-3 0  9996
2 56103  43.0018  96.1356 0001161 264.1154  95.9556 15.02523568 54178
STARLINK-6062           
1 56104U 23046M   24082.40741505  .00004388  00000+0  33961-3 0  9990
2 56104  43.0015  96.5035 0001361 255.2719 104.7973 15.02544482 54163
STARLINK-6066           
1 56105U 23046N   24082.52705538  .00008070  00000+0  61169-3 0  9993
2 56105  43.0018  95.6796 0001297 267.7394  92.3300 15.02539173 54185
STARLINK-6078           
1 56106U 23046P   24082.40075414  .00002225  00000+0  17969-3 0  9999
2 56106  43.0017  96.4516 0001275 272.3243  87.7453 15.02538982 54167
STARLINK-6030           
1 56107U 23046Q   24082.38853574  .00001579  00000+0  13188-3 0  9998
2 56107  43.0022  96.3578 0001162 258.2795 101.7917 15.02549017 54164
STARLINK-6081           
1 56108U 23046R   24082.40297232  .00000717  00000+0  68093-4 0  9994
2 56108  43.0024  96.4690 0000816 253.7374 106.3378 15.02549264 54167
STARLINK-6083           
1 56109U 23046S   24082.39187829  .00012203  00000+0  91644-3 0  9993
2 56109  43.0015  96.3853 0001102 278.3749  81.6968 15.02552506 54169
STARLINK-6082           
1 56110U 23046T   24082.33095870 -.00001086  00000+0 -65366-4 0  9995
2 56110  43.0021  96.7879 0000899 259.4061 100.6680 15.02531808 54153
STARLINK-6084           
1 56111U 23046U   24082.31096859  .00002088  00000+0  16962-3 0  9990
2 56111  43.0018  96.6356 0001354 254.3995 105.6698 15.02531689 54157
STARLINK-6080           
1 56112U 23046V   24082.44947298  .00007030  00000+0  53478-3 0  9992
2 56112  43.0020  95.9561 0001212 270.9044  89.1660 15.02550778 54170
STARLINK-6113           
1 56113U 23046W   24082.44059297  .00006417  00000+0  48952-3 0  9995
2 56113  43.0013  95.8895 0001207 261.9045  98.1660 15.02549668 54173
STARLINK-6103           
1 56114U 23046X   24082.38631955  .00002538  00000+0  20283-3 0  9993
2 56114  43.0017  96.3420 0001126 266.1938  93.8776 15.02547078 54168
STARLINK-6101           
1 56115U 23046Y   24082.36857519  .00002582  00000+0  20617-3 0  9998
2 56115  43.0006  96.2055 0000983 251.4137 108.6598 15.02529826 54166
STARLINK-6114           
1 56116U 23046Z   24082.44614364  .00004552  00000+0  35173-3 0  9999
2 56116  43.0015  95.9312 0001276 253.7000 106.3702 15.02545364 54177
STARLINK-6107           
1 56117U 23046AA  24082.35673718  .00004477  00000+0  34621-3 0  9991
2 56117  43.0018  84.0082 0001322 256.8577 103.2117 15.02543529 54301
STARLINK-6105           
1 56118U 23046AB  24082.43837522  .00004436  00000+0  34316-3 0  9992
2 56118  43.0018  95.8720 0001308 252.4851 107.5849 15.02544344 54172
STARLINK-6091           
1 56119U 23046AC  24082.43320359  .00005645  00000+0  43254-3 0  9992
2 56119  43.0021  83.7149 0001343 269.2852  90.7836 15.02545585 54317
STARLINK-6079           
1 56120U 23046AD  24082.44096854  .00013849  00000+0  10376-2 0  9998
2 56120  43.0021  83.7748 0001033 277.2312  82.8413 15.02558621 54318
STARLINK-6092           
1 56121U 23046AE  24082.30357910  .00006928  00000+0  52726-3 0  9993
2 56121  43.0019  84.4631 0001621 251.7454 108.3212 15.02546624 54290
STARLINK-6094           
1 56122U 23046AF  24082.50282183  .00005185  00000+0  40702-3 0  9990
2 56122  43.0016  95.4941 0001274 253.4572 106.6130 15.01735093 54185
STARLINK-6115           
1 56123U 23046AH  24082.49080152  .00005324  00000+0  40877-3 0  9999
2 56123  43.0019  83.2869 0001425 257.6919 102.3764 15.02546502 54320
STARLINK-6126           
1 56124U 23046AJ  24082.37116850  .00003735  00000+0  29141-3 0  9997
2 56124  43.0022  84.1113 0001361 258.7192 101.3497 15.02535670 54305
STARLINK-6119           
1 56125U 23046AK  24082.49412888  .00017636  00000+0  13166-2 0  9995
2 56125  43.0022  83.3124 0001215 262.7684  97.3020 15.02557100 54328
STARLINK-6124           
1 56126U 23046AL  24082.42099505  .00008465  00000+0  64072-3 0  9999
2 56126  43.0012  83.6219 0000901 267.1242  92.9498 15.02548894 54315
STARLINK-6104           
1 56127U 23046AM  24082.47969829  .00012531  00000+0  94055-3 0  9993
2 56127  43.0021  83.2028 0000987 269.3895  90.6834 15.02557191 54322
STARLINK-6122           
1 56128U 23046AN  24082.36338987  .00002535  00000+0  20262-3 0  9999
2 56128  43.0016  84.0506 0001137 263.0632  97.0081 15.02540012 54302
STARLINK-6121           
1 56129U 23046AP  24082.21816378 -.00001653  00000+0 -10730-3 0  9990
2 56129  43.0049  32.7868 0001476 261.6751  98.3924 15.02533907 54880
STARLINK-6117           
1 56130U 23046AQ  24082.48413537  .00015201  00000+0  11371-2 0  9994
2 56130  43.0020  83.2367 0001043 268.5678  91.5045 15.02561898 54328
STARLINK-6120           
1 56131U 23046AR  24082.33676560 -.00001118  00000+0 -67759-4 0  9993
2 56131  43.0019  83.8478 0001375 248.1480 111.9217 15.02520143 54303
STARLINK-6071           
1 56132U 23046AS  24082.48081954  .00017331  00000+0  12937-2 0  9995
2 56132  43.0019  83.2106 0001561 253.1140 106.9531 15.02570285 54329
STARLINK-5566           
1 56133U 23046AT  24082.47082274  .00004248  00000+0  32926-3 0  9995
2 56133  43.0019  83.1344 0001222 254.5063 105.5645 15.02544949 54325
STARLINK-5564           
1 56134U 23046AU  24082.41100044  .00008396  00000+0  63558-3 0  9999
2 56134  43.0013  83.5461 0001130 259.6804 100.3911 15.02550438 54319
STARLINK-5563           
1 56135U 23046AV  24082.22652693 -.00007343  00000+0 -55068-4 0  9992
2 56135  43.0021  22.3396 0001150 270.4414  89.6322 15.70290678 55001
STARLINK-5489           
1 56136U 23046AW  24082.47303792  .00012242  00000+0  91922-3 0  9993
2 56136  43.0020  83.1514 0000953 257.5863 102.4873 15.02556123 54326
STARLINK-5090           
1 56137U 23046AX  24082.38436873  .00014731  00000+0  11027-2 0  9993
2 56137  43.0015  83.3459 0001397 271.9404  88.1279 15.02554154 54316
STARLINK-4774           
1 56138U 23046AY  24082.33341337  .00020174  00000+0  15032-2 0  9997
2 56138  43.0018  83.8245 0001547 270.5621  89.5044 15.02561376 54309
STARLINK-5378           
1 56139U 23046AZ  24082.58335648  .01379888  00000+0  37377-1 0  9998
2 56139  43.0028  80.7373 0001662 279.3804   6.4740 15.33912254  5808
STARLINK-5375           
1 56140U 23046BA  24082.39768649  .00003365  00000+0  26398-3 0  9996
2 56140  43.0015  83.4442 0001245 258.6777 101.3925 15.02541927 54310
